{
  "type": "FeatureCollection",
  "name": "Kantipur River routing network",
  "scenario_id": "kantipur-river-v1",
  "data_classification": "modeled_synthetic_demo",
  "operational_use": false,
  "features": [
    {
      "type": "Feature",
      "id": "ktp-road-01",
      "properties": {
        "id": "ktp-road-01",
        "edge_type": "road",
        "from_node_id": "ktp-node-com-01",
        "to_node_id": "ktp-node-junction-nw",
        "baseline_travel_minutes": 5,
        "bidirectional": true,
        "penalty_depth_m": 0.15,
        "closure_depth_m": 0.3,
        "penalty_multiplier": 1.5,
        "critical": false
      },
      "geometry": {
        "type": "LineString",
        "coordinates": [
          [
            85.305163,
            27.710018
          ],
          [
            85.305126,
            27.70987
          ],
          [
            85.305099,
            27.709685
          ],
          [
            85.305067,
            27.709699
          ],
          [
            85.304906,
            27.709272
          ],
          [
            85.304906,
            27.709034
          ],
          [
            85.305099,
            27.70902
          ],
          [
            85.305871,
            27.708844
          ],
          [
            85.307626,
            27.708597
          ],
          [
            85.309594,
            27.708189
          ],
          [
            85.310077,
            27.708066
          ],
          [
            85.31027,
            27.707999
          ],
          [
            85.310742,
            27.707899
          ],
          [
            85.312191,
            27.707529
          ],
          [
            85.312266,
            27.707477
          ],
          [
            85.312341,
            27.70742
          ],
          [
            85.312475,
            27.707396
          ],
          [
            85.312883,
            27.707358
          ],
          [
            85.313124,
            27.707358
          ],
          [
            85.313687,
            27.707168
          ],
          [
            85.314224,
            27.707059
          ],
          [
            85.314369,
            27.707011
          ],
          [
            85.314599,
            27.706907
          ],
          [
            85.315264,
            27.706579
          ],
          [
            85.315683,
            27.706437
          ],
          [
            85.315919,
            27.706342
          ],
          [
            85.316123,
            27.706237
          ],
          [
            85.316219,
            27.706147
          ],
          [
            85.317169,
            27.705952
          ],
          [
            85.317019,
            27.705629
          ],
          [
            85.317389,
            27.705501
          ],
          [
            85.317319,
            27.705363
          ]
        ]
      }
    },
    {
      "type": "Feature",
      "id": "ktp-road-02",
      "properties": {
        "id": "ktp-road-02",
        "edge_type": "road",
        "from_node_id": "ktp-node-junction-nw",
        "to_node_id": "ktp-node-com-02",
        "baseline_travel_minutes": 6,
        "bidirectional": true,
        "penalty_depth_m": 0.15,
        "closure_depth_m": 0.3,
        "penalty_multiplier": 1.5,
        "critical": false
      },
      "geometry": {
        "type": "LineString",
        "coordinates": [
          [
            85.317319,
            27.705363
          ],
          [
            85.317389,
            27.705501
          ],
          [
            85.317019,
            27.705629
          ],
          [
            85.317169,
            27.705952
          ],
          [
            85.316219,
            27.706147
          ],
          [
            85.316439,
            27.706736
          ],
          [
            85.316648,
            27.707576
          ],
          [
            85.316783,
            27.707999
          ],
          [
            85.317078,
            27.70799
          ],
          [
            85.317201,
            27.70798
          ],
          [
            85.318086,
            27.707975
          ],
          [
            85.3191,
            27.708004
          ],
          [
            85.319138,
            27.707828
          ],
          [
            85.319186,
            27.707705
          ],
          [
            85.319245,
            27.7077
          ],
          [
            85.319363,
            27.707762
          ],
          [
            85.319524,
            27.707994
          ],
          [
            85.321273,
            27.707966
          ],
          [
            85.32182,
            27.70799
          ],
          [
            85.32189,
            27.70789
          ],
          [
            85.322555,
            27.707163
          ],
          [
            85.322764,
            27.706845
          ],
          [
            85.322877,
            27.706712
          ],
          [
            85.322893,
            27.706584
          ],
          [
            85.322898,
            27.706014
          ],
          [
            85.322871,
            27.705648
          ],
          [
            85.324062,
            27.705615
          ],
          [
            85.324202,
            27.705629
          ],
          [
            85.324609,
            27.705563
          ],
          [
            85.325537,
            27.705472
          ],
          [
            85.325779,
            27.705871
          ],
          [
            85.32631,
            27.705734
          ],
          [
            85.326256,
            27.705548
          ],
          [
            85.32616,
            27.705387
          ]
        ]
      }
    },
    {
      "type": "Feature",
      "id": "ktp-road-03",
      "properties": {
        "id": "ktp-road-03",
        "edge_type": "road",
        "from_node_id": "ktp-node-com-02",
        "to_node_id": "ktp-node-hospital-01",
        "baseline_travel_minutes": 5,
        "bidirectional": true,
        "penalty_depth_m": 0.15,
        "closure_depth_m": 0.3,
        "penalty_multiplier": 1.5,
        "critical": true
      },
      "geometry": {
        "type": "LineString",
        "coordinates": [
          [
            85.32616,
            27.705387
          ],
          [
            85.326256,
            27.705548
          ],
          [
            85.32631,
            27.705734
          ],
          [
            85.326342,
            27.705819
          ],
          [
            85.326519,
            27.705791
          ],
          [
            85.326589,
            27.705838
          ],
          [
            85.326637,
            27.705862
          ],
          [
            85.326862,
            27.705862
          ],
          [
            85.326777,
            27.705358
          ],
          [
            85.327383,
            27.705382
          ],
          [
            85.327522,
            27.705377
          ],
          [
            85.328504,
            27.705102
          ],
          [
            85.329126,
            27.704945
          ],
          [
            85.33264,
            27.70391
          ],
          [
            85.333321,
            27.705187
          ],
          [
            85.333482,
            27.705439
          ],
          [
            85.333552,
            27.705572
          ],
          [
            85.333702,
            27.705525
          ],
          [
            85.333793,
            27.70551
          ],
          [
            85.33404,
            27.70551
          ],
          [
            85.334136,
            27.705525
          ],
          [
            85.334131,
            27.705463
          ],
          [
            85.334029,
            27.705116
          ]
        ]
      }
    },
    {
      "type": "Feature",
      "id": "ktp-road-04",
      "properties": {
        "id": "ktp-road-04",
        "edge_type": "road",
        "from_node_id": "ktp-node-hospital-01",
        "to_node_id": "ktp-node-junction-ne",
        "baseline_travel_minutes": 5,
        "bidirectional": true,
        "penalty_depth_m": 0.15,
        "closure_depth_m": 0.3,
        "penalty_multiplier": 1.5,
        "critical": true
      },
      "geometry": {
        "type": "LineString",
        "coordinates": [
          [
            85.334029,
            27.705116
          ],
          [
            85.334131,
            27.705463
          ],
          [
            85.334136,
            27.705525
          ],
          [
            85.33404,
            27.70551
          ],
          [
            85.333793,
            27.70551
          ],
          [
            85.333702,
            27.705525
          ],
          [
            85.333552,
            27.705572
          ],
          [
            85.333723,
            27.705928
          ],
          [
            85.333782,
            27.706137
          ],
          [
            85.333777,
            27.706213
          ],
          [
            85.333664,
            27.706365
          ],
          [
            85.333477,
            27.706788
          ],
          [
            85.333391,
            27.707106
          ],
          [
            85.333348,
            27.707367
          ],
          [
            85.333326,
            27.708218
          ],
          [
            85.336642,
            27.708085
          ],
          [
            85.3372,
            27.708056
          ],
          [
            85.337371,
            27.708051
          ],
          [
            85.33802,
            27.708023
          ],
          [
            85.33802,
            27.707937
          ],
          [
            85.338053,
            27.707847
          ],
          [
            85.338106,
            27.707766
          ],
          [
            85.338213,
            27.707505
          ],
          [
            85.338197,
            27.707325
          ],
          [
            85.338122,
            27.707073
          ],
          [
            85.338144,
            27.706964
          ],
          [
            85.338289,
            27.706636
          ],
          [
            85.33831,
            27.706536
          ],
          [
            85.33831,
            27.706251
          ],
          [
            85.338331,
            27.706109
          ],
          [
            85.338567,
            27.706171
          ],
          [
            85.33868,
            27.706175
          ],
          [
            85.338739,
            27.70609
          ],
          [
            85.338863,
            27.706061
          ],
          [
            85.338948,
            27.706066
          ],
          [
            85.339018,
            27.706118
          ],
          [
            85.339131,
            27.706133
          ],
          [
            85.339211,
            27.706095
          ],
          [
            85.339404,
            27.706052
          ],
          [
            85.33956,
            27.705952
          ],
          [
            85.339673,
            27.7059
          ],
          [
            85.339753,
            27.705886
          ],
          [
            85.339882,
            27.705805
          ],
          [
            85.339893,
            27.705791
          ],
          [
            85.339887,
            27.705715
          ],
          [
            85.340306,
            27.70551
          ],
          [
            85.3403,
            27.705425
          ],
          [
            85.340499,
            27.705363
          ],
          [
            85.34125,
            27.705002
          ],
          [
            85.341507,
            27.704931
          ],
          [
            85.341813,
            27.704817
          ],
          [
            85.34192,
            27.704808
          ]
        ]
      }
    },
    {
      "type": "Feature",
      "id": "ktp-road-05",
      "properties": {
        "id": "ktp-road-05",
        "edge_type": "road",
        "from_node_id": "ktp-node-junction-ne",
        "to_node_id": "ktp-node-com-03",
        "baseline_travel_minutes": 5,
        "bidirectional": true,
        "penalty_depth_m": 0.15,
        "closure_depth_m": 0.3,
        "penalty_multiplier": 1.5,
        "critical": false
      },
      "geometry": {
        "type": "LineString",
        "coordinates": [
          [
            85.34192,
            27.704808
          ],
          [
            85.341813,
            27.704817
          ],
          [
            85.341507,
            27.704931
          ],
          [
            85.34125,
            27.705002
          ],
          [
            85.340499,
            27.705363
          ],
          [
            85.3403,
            27.705425
          ],
          [
            85.340306,
            27.70551
          ],
          [
            85.339887,
            27.705715
          ],
          [
            85.339893,
            27.705791
          ],
          [
            85.339882,
            27.705805
          ],
          [
            85.339753,
            27.705886
          ],
          [
            85.339844,
            27.70599
          ],
          [
            85.34008,
            27.706422
          ],
          [
            85.340402,
            27.707206
          ],
          [
            85.340472,
            27.70742
          ],
          [
            85.340558,
            27.707614
          ],
          [
            85.340579,
            27.707719
          ],
          [
            85.340686,
            27.707747
          ],
          [
            85.341035,
            27.707766
          ],
          [
            85.341148,
            27.707847
          ],
          [
            85.341293,
            27.70789
          ],
          [
            85.341437,
            27.707895
          ],
          [
            85.341641,
            27.70789
          ],
          [
            85.341759,
            27.70799
          ],
          [
            85.341899,
            27.708104
          ],
          [
            85.342494,
            27.707994
          ],
          [
            85.34288,
            27.707895
          ],
          [
            85.343299,
            27.707766
          ],
          [
            85.343551,
            27.70769
          ],
          [
            85.34375,
            27.70761
          ],
          [
            85.343948,
            27.707467
          ],
          [
            85.344474,
            27.707049
          ],
          [
            85.344704,
            27.706897
          ],
          [
            85.345573,
            27.706199
          ],
          [
            85.34574,
            27.706085
          ],
          [
            85.346003,
            27.705943
          ],
          [
            85.346282,
            27.705833
          ],
          [
            85.346716,
            27.705762
          ],
          [
            85.347027,
            27.705753
          ],
          [
            85.347172,
            27.705762
          ],
          [
            85.347558,
            27.705805
          ],
          [
            85.348878,
            27.706009
          ],
          [
            85.349393,
            27.70609
          ],
          [
            85.350294,
            27.706232
          ],
          [
            85.35045,
            27.706242
          ],
          [
            85.350772,
            27.706204
          ],
          [
            85.351088,
            27.706104
          ],
          [
            85.351233,
            27.706038
          ],
          [
            85.351603,
            27.705748
          ],
          [
            85.351678,
            27.705662
          ],
          [
            85.351775,
            27.70552
          ],
          [
            85.351866,
            27.705316
          ],
          [
            85.351936,
            27.705026
          ],
          [
            85.351989,
            27.704323
          ],
          [
            85.352027,
            27.703468
          ],
          [
            85.352097,
            27.703017
          ],
          [
            85.352209,
            27.70268
          ],
          [
            85.352311,
            27.702476
          ],
          [
            85.352129,
            27.702385
          ],
          [
            85.350686,
            27.701663
          ],
          [
            85.350654,
            27.701953
          ],
          [
            85.350573,
            27.70229
          ],
          [
            85.350525,
            27.70258
          ],
          [
            85.35024,
            27.702552
          ],
          [
            85.350203,
            27.702647
          ],
          [
            85.350171,
            27.70268
          ],
          [
            85.350171,
            27.70295
          ],
          [
            85.350133,
            27.703577
          ],
          [
            85.349988,
            27.703976
          ],
          [
            85.349967,
            27.704081
          ],
          [
            85.349929,
            27.704447
          ],
          [
            85.349838,
            27.705021
          ]
        ]
      }
    },
    {
      "type": "Feature",
      "id": "ktp-road-06",
      "properties": {
        "id": "ktp-road-06",
        "edge_type": "road",
        "from_node_id": "ktp-node-com-03",
        "to_node_id": "ktp-node-shelter-02",
        "baseline_travel_minutes": 4,
        "bidirectional": true,
        "penalty_depth_m": 0.15,
        "closure_depth_m": 0.3,
        "penalty_multiplier": 1.5,
        "critical": false
      },
      "geometry": {
        "type": "LineString",
        "coordinates": [
          [
            85.34983813762665,
            27.70502124842716
          ],
          [
            85.35947263240814,
            27.71023596827088
          ]
        ]
      }
    },
    {
      "type": "Feature",
      "id": "ktp-road-07",
      "properties": {
        "id": "ktp-road-07",
        "edge_type": "road",
        "from_node_id": "ktp-node-shelter-01",
        "to_node_id": "ktp-node-com-04",
        "baseline_travel_minutes": 4,
        "bidirectional": true,
        "penalty_depth_m": 0.15,
        "closure_depth_m": 0.3,
        "penalty_multiplier": 1.5,
        "critical": false
      },
      "geometry": {
        "type": "LineString",
        "coordinates": [
          [
            85.300207,
            27.651839
          ],
          [
            85.300507,
            27.652119
          ],
          [
            85.300679,
            27.652347
          ],
          [
            85.300925,
            27.652513
          ],
          [
            85.30107,
            27.652737
          ],
          [
            85.301199,
            27.653012
          ],
          [
            85.301381,
            27.65325
          ],
          [
            85.301585,
            27.65325
          ],
          [
            85.301644,
            27.653336
          ],
          [
            85.301703,
            27.65364
          ],
          [
            85.302411,
            27.655179
          ],
          [
            85.302545,
            27.655502
          ],
          [
            85.302551,
            27.655607
          ],
          [
            85.302476,
            27.65593
          ],
          [
            85.302465,
            27.65603
          ],
          [
            85.302486,
            27.656129
          ],
          [
            85.302551,
            27.656205
          ],
          [
            85.302631,
            27.656258
          ],
          [
            85.302674,
            27.656353
          ],
          [
            85.302744,
            27.656638
          ],
          [
            85.302787,
            27.656709
          ],
          [
            85.303109,
            27.656899
          ],
          [
            85.303189,
            27.656985
          ],
          [
            85.303382,
            27.657085
          ],
          [
            85.303688,
            27.657294
          ],
          [
            85.303774,
            27.657422
          ],
          [
            85.303849,
            27.657579
          ],
          [
            85.303924,
            27.657669
          ],
          [
            85.30401,
            27.657735
          ],
          [
            85.304278,
            27.657878
          ],
          [
            85.304343,
            27.65793
          ],
          [
            85.304455,
            27.658168
          ],
          [
            85.304536,
            27.658291
          ],
          [
            85.304815,
            27.658486
          ],
          [
            85.304857,
            27.658562
          ],
          [
            85.304798,
            27.658814
          ],
          [
            85.30482,
            27.658843
          ],
          [
            85.30533,
            27.659061
          ],
          [
            85.305399,
            27.659137
          ],
          [
            85.30563,
            27.659608
          ],
          [
            85.305737,
            27.659755
          ],
          [
            85.305759,
            27.659826
          ],
          [
            85.305748,
            27.659907
          ],
          [
            85.305764,
            27.66014
          ],
          [
            85.305796,
            27.660273
          ],
          [
            85.305845,
            27.660382
          ],
          [
            85.305952,
            27.660496
          ],
          [
            85.306059,
            27.660544
          ],
          [
            85.305791,
            27.661404
          ],
          [
            85.305979,
            27.662302
          ],
          [
            85.306064,
            27.662748
          ],
          [
            85.306252,
            27.663603
          ],
          [
            85.306386,
            27.66396
          ],
          [
            85.306317,
            27.663765
          ],
          [
            85.306456,
            27.663608
          ],
          [
            85.306435,
            27.663318
          ],
          [
            85.306676,
            27.663304
          ],
          [
            85.306821,
            27.663276
          ],
          [
            85.307234,
            27.663257
          ],
          [
            85.307749,
            27.663399
          ],
          [
            85.307894,
            27.663423
          ],
          [
            85.30799,
            27.663428
          ],
          [
            85.308167,
            27.66338
          ],
          [
            85.308275,
            27.663318
          ],
          [
            85.308371,
            27.663242
          ],
          [
            85.308586,
            27.663043
          ],
          [
            85.308698,
            27.662857
          ],
          [
            85.308918,
            27.662544
          ],
          [
            85.308993,
            27.662473
          ],
          [
            85.309154,
            27.662344
          ],
          [
            85.309267,
            27.662363
          ],
          [
            85.30939,
            27.662264
          ],
          [
            85.309444,
            27.662149
          ],
          [
            85.309498,
            27.661774
          ],
          [
            85.3096,
            27.661736
          ],
          [
            85.309814,
            27.661503
          ],
          [
            85.309852,
            27.661446
          ],
          [
            85.309836,
            27.661019
          ],
          [
            85.309793,
            27.660852
          ],
          [
            85.309626,
            27.660691
          ],
          [
            85.309455,
            27.660553
          ],
          [
            85.309412,
            27.660477
          ],
          [
            85.309407,
            27.660353
          ],
          [
            85.309755,
            27.660263
          ],
          [
            85.30968,
            27.659978
          ]
        ]
      }
    },
    {
      "type": "Feature",
      "id": "ktp-road-08",
      "properties": {
        "id": "ktp-road-08",
        "edge_type": "road",
        "from_node_id": "ktp-node-com-04",
        "to_node_id": "ktp-node-junction-sw",
        "baseline_travel_minutes": 5,
        "bidirectional": true,
        "penalty_depth_m": 0.15,
        "closure_depth_m": 0.3,
        "penalty_multiplier": 1.5,
        "critical": false
      },
      "geometry": {
        "type": "LineString",
        "coordinates": [
          [
            85.30968,
            27.659978
          ],
          [
            85.309755,
            27.660263
          ],
          [
            85.309407,
            27.660353
          ],
          [
            85.309412,
            27.660477
          ],
          [
            85.309455,
            27.660553
          ],
          [
            85.309626,
            27.660691
          ],
          [
            85.309793,
            27.660852
          ],
          [
            85.309836,
            27.661019
          ],
          [
            85.309852,
            27.661446
          ],
          [
            85.309814,
            27.661503
          ],
          [
            85.3096,
            27.661736
          ],
          [
            85.309498,
            27.661774
          ],
          [
            85.309444,
            27.662149
          ],
          [
            85.30939,
            27.662264
          ],
          [
            85.309267,
            27.662363
          ],
          [
            85.309154,
            27.662344
          ],
          [
            85.308993,
            27.662473
          ],
          [
            85.308918,
            27.662544
          ],
          [
            85.308698,
            27.662857
          ],
          [
            85.308586,
            27.663043
          ],
          [
            85.308371,
            27.663242
          ],
          [
            85.308275,
            27.663318
          ],
          [
            85.308167,
            27.66338
          ],
          [
            85.30799,
            27.663428
          ],
          [
            85.307894,
            27.663423
          ],
          [
            85.307749,
            27.663399
          ],
          [
            85.307234,
            27.663257
          ],
          [
            85.306821,
            27.663276
          ],
          [
            85.306676,
            27.663304
          ],
          [
            85.306435,
            27.663318
          ],
          [
            85.306456,
            27.663608
          ],
          [
            85.306655,
            27.663765
          ],
          [
            85.306751,
            27.663969
          ],
          [
            85.306998,
            27.664577
          ],
          [
            85.307137,
            27.664834
          ],
          [
            85.307432,
            27.665328
          ],
          [
            85.307835,
            27.665779
          ],
          [
            85.308044,
            27.666026
          ],
          [
            85.308183,
            27.66624
          ],
          [
            85.308242,
            27.666454
          ],
          [
            85.308205,
            27.666521
          ],
          [
            85.308146,
            27.666582
          ],
          [
            85.30821,
            27.666658
          ],
          [
            85.308462,
            27.666929
          ],
          [
            85.308661,
            27.667181
          ],
          [
            85.309267,
            27.668079
          ],
          [
            85.309594,
            27.668578
          ],
          [
            85.30975,
            27.668839
          ],
          [
            85.31034,
            27.66958
          ],
          [
            85.310833,
            27.669975
          ],
          [
            85.311402,
            27.67034
          ],
          [
            85.311772,
            27.670687
          ],
          [
            85.311981,
            27.670906
          ],
          [
            85.312239,
            27.671272
          ],
          [
            85.312534,
            27.671808
          ],
          [
            85.312727,
            27.672122
          ],
          [
            85.312968,
            27.672426
          ],
          [
            85.313188,
            27.672678
          ],
          [
            85.313376,
            27.672901
          ],
          [
            85.313398,
            27.672977
          ],
          [
            85.313462,
            27.673044
          ],
          [
            85.313537,
            27.673077
          ],
          [
            85.313918,
            27.673257
          ],
          [
            85.314009,
            27.673319
          ],
          [
            85.314068,
            27.673386
          ],
          [
            85.314127,
            27.673481
          ],
          [
            85.314487,
            27.674478
          ],
          [
            85.314535,
            27.674564
          ],
          [
            85.314572,
            27.674507
          ],
          [
            85.31469,
            27.674659
          ],
          [
            85.315495,
            27.675428
          ],
          [
            85.315704,
            27.675685
          ],
          [
            85.315838,
            27.675637
          ],
          [
            85.31608,
            27.675604
          ],
          [
            85.316187,
            27.675576
          ],
          [
            85.316375,
            27.675495
          ],
          [
            85.317008,
            27.675329
          ],
          [
            85.317153,
            27.675219
          ]
        ]
      }
    },
    {
      "type": "Feature",
      "id": "ktp-road-09",
      "properties": {
        "id": "ktp-road-09",
        "edge_type": "road",
        "from_node_id": "ktp-node-junction-sw",
        "to_node_id": "ktp-node-junction-se",
        "baseline_travel_minutes": 9,
        "bidirectional": true,
        "penalty_depth_m": 0.12,
        "closure_depth_m": 0.28,
        "penalty_multiplier": 1.75,
        "critical": true
      },
      "geometry": {
        "type": "LineString",
        "coordinates": [
          [
            85.317153,
            27.675219
          ],
          [
            85.3174,
            27.675091
          ],
          [
            85.317555,
            27.675267
          ],
          [
            85.318006,
            27.675899
          ],
          [
            85.31814,
            27.676037
          ],
          [
            85.319223,
            27.675276
          ],
          [
            85.319953,
            27.67473
          ],
          [
            85.320168,
            27.674592
          ],
          [
            85.320393,
            27.674483
          ],
          [
            85.320876,
            27.674298
          ],
          [
            85.320994,
            27.674255
          ],
          [
            85.32131,
            27.674136
          ],
          [
            85.32182,
            27.673984
          ],
          [
            85.322683,
            27.673808
          ],
          [
            85.322882,
            27.673799
          ],
          [
            85.323236,
            27.673732
          ],
          [
            85.323333,
            27.673713
          ],
          [
            85.323778,
            27.67358
          ],
          [
            85.323912,
            27.673523
          ],
          [
            85.324636,
            27.674915
          ],
          [
            85.325033,
            27.675538
          ],
          [
            85.325049,
            27.675585
          ],
          [
            85.325146,
            27.675785
          ],
          [
            85.325274,
            27.675904
          ],
          [
            85.325548,
            27.676279
          ],
          [
            85.325612,
            27.676336
          ],
          [
            85.325623,
            27.676364
          ],
          [
            85.325865,
            27.676844
          ],
          [
            85.325897,
            27.676982
          ],
          [
            85.32602,
            27.677115
          ],
          [
            85.326106,
            27.677048
          ],
          [
            85.326149,
            27.676977
          ],
          [
            85.326331,
            27.676944
          ],
          [
            85.326632,
            27.677124
          ],
          [
            85.326734,
            27.677086
          ],
          [
            85.326862,
            27.677224
          ],
          [
            85.32697,
            27.677371
          ],
          [
            85.327061,
            27.677595
          ],
          [
            85.327082,
            27.677837
          ],
          [
            85.327463,
            27.677813
          ],
          [
            85.327769,
            27.677842
          ],
          [
            85.328096,
            27.677709
          ],
          [
            85.328305,
            27.677804
          ],
          [
            85.328633,
            27.677918
          ],
          [
            85.328815,
            27.678056
          ],
          [
            85.328954,
            27.678474
          ],
          [
            85.329368,
            27.67939
          ],
          [
            85.329502,
            27.679614
          ],
          [
            85.329571,
            27.679709
          ],
          [
            85.329958,
            27.680051
          ],
          [
            85.330918,
            27.680725
          ],
          [
            85.33088,
            27.680602
          ],
          [
            85.330639,
            27.680412
          ],
          [
            85.331079,
            27.679956
          ],
          [
            85.331433,
            27.679614
          ],
          [
            85.331545,
            27.679523
          ],
          [
            85.331647,
            27.679457
          ],
          [
            85.33191,
            27.679319
          ],
          [
            85.33235,
            27.679167
          ],
          [
            85.332543,
            27.679124
          ],
          [
            85.333037,
            27.679048
          ],
          [
            85.333439,
            27.679058
          ],
          [
            85.334088,
            27.679096
          ],
          [
            85.33434,
            27.679177
          ],
          [
            85.334839,
            27.6794
          ],
          [
            85.335022,
            27.679428
          ],
          [
            85.335199,
            27.679424
          ],
          [
            85.335231,
            27.679362
          ],
          [
            85.335311,
            27.679086
          ],
          [
            85.335343,
            27.67901
          ],
          [
            85.335408,
            27.678953
          ],
          [
            85.335504,
            27.678721
          ],
          [
            85.335585,
            27.678455
          ],
          [
            85.335681,
            27.677908
          ],
          [
            85.335681,
            27.677794
          ],
          [
            85.336025,
            27.677438
          ],
          [
            85.336475,
            27.677205
          ],
          [
            85.337285,
            27.67673
          ],
          [
            85.338541,
            27.675861
          ],
          [
            85.339029,
            27.675637
          ],
          [
            85.339115,
            27.675595
          ],
          [
            85.339217,
            27.675599
          ],
          [
            85.339324,
            27.675542
          ],
          [
            85.339453,
            27.675519
          ],
          [
            85.339667,
            27.675419
          ],
          [
            85.339866,
            27.67539
          ],
          [
            85.340005,
            27.675637
          ],
          [
            85.340359,
            27.675661
          ],
          [
            85.340724,
            27.675675
          ],
          [
            85.340799,
            27.675671
          ],
          [
            85.340863,
            27.675637
          ],
          [
            85.340955,
            27.675528
          ],
          [
            85.341089,
            27.675485
          ],
          [
            85.341309,
            27.675395
          ],
          [
            85.341389,
            27.675438
          ],
          [
            85.341582,
            27.675338
          ],
          [
            85.341588,
            27.675305
          ],
          [
            85.341641,
            27.675267
          ],
          [
            85.341657,
            27.675219
          ],
          [
            85.341738,
            27.675196
          ],
          [
            85.341824,
            27.675134
          ],
          [
            85.34214,
            27.675139
          ]
        ]
      }
    },
    {
      "type": "Feature",
      "id": "ktp-road-10",
      "properties": {
        "id": "ktp-road-10",
        "edge_type": "road",
        "from_node_id": "ktp-node-junction-se",
        "to_node_id": "ktp-node-com-05",
        "baseline_travel_minutes": 4,
        "bidirectional": true,
        "penalty_depth_m": 0.12,
        "closure_depth_m": 0.28,
        "penalty_multiplier": 1.75,
        "critical": true
      },
      "geometry": {
        "type": "LineString",
        "coordinates": [
          [
            85.34214,
            27.675139
          ],
          [
            85.341824,
            27.675134
          ],
          [
            85.341738,
            27.675196
          ],
          [
            85.341657,
            27.675219
          ],
          [
            85.341641,
            27.675267
          ],
          [
            85.341588,
            27.675305
          ],
          [
            85.341582,
            27.675338
          ],
          [
            85.341389,
            27.675438
          ],
          [
            85.341309,
            27.675395
          ],
          [
            85.341089,
            27.675485
          ],
          [
            85.340955,
            27.675528
          ],
          [
            85.340863,
            27.675637
          ],
          [
            85.340799,
            27.675671
          ],
          [
            85.340724,
            27.675675
          ],
          [
            85.340359,
            27.675661
          ],
          [
            85.340005,
            27.675637
          ],
          [
            85.339866,
            27.67539
          ],
          [
            85.339667,
            27.675419
          ],
          [
            85.339453,
            27.675519
          ],
          [
            85.339324,
            27.675542
          ],
          [
            85.339217,
            27.675599
          ],
          [
            85.339115,
            27.675595
          ],
          [
            85.339211,
            27.675519
          ],
          [
            85.339324,
            27.675405
          ],
          [
            85.340483,
            27.674649
          ],
          [
            85.340627,
            27.674535
          ],
          [
            85.340896,
            27.674236
          ],
          [
            85.341035,
            27.674108
          ],
          [
            85.341212,
            27.673975
          ],
          [
            85.341389,
            27.673856
          ],
          [
            85.341647,
            27.67377
          ],
          [
            85.341722,
            27.673728
          ],
          [
            85.342349,
            27.673205
          ],
          [
            85.342666,
            27.672991
          ],
          [
            85.343294,
            27.672597
          ],
          [
            85.343905,
            27.672169
          ],
          [
            85.344238,
            27.671989
          ],
          [
            85.344865,
            27.67158
          ],
          [
            85.345847,
            27.670811
          ],
          [
            85.345917,
            27.670725
          ],
          [
            85.345938,
            27.670668
          ],
          [
            85.346024,
            27.670549
          ],
          [
            85.346721,
            27.66978
          ],
          [
            85.346882,
            27.669922
          ],
          [
            85.347167,
            27.669718
          ],
          [
            85.347467,
            27.669552
          ],
          [
            85.347612,
            27.669675
          ],
          [
            85.347762,
            27.66977
          ],
          [
            85.347832,
            27.669851
          ],
          [
            85.347918,
            27.669685
          ],
          [
            85.34802,
            27.66958
          ],
          [
            85.348105,
            27.669585
          ],
          [
            85.348218,
            27.669552
          ],
          [
            85.348358,
            27.669485
          ],
          [
            85.348476,
            27.669447
          ],
          [
            85.348647,
            27.669233
          ],
          [
            85.348862,
            27.669091
          ],
          [
            85.348969,
            27.669053
          ],
          [
            85.34905,
            27.668991
          ],
          [
            85.349371,
            27.668963
          ],
          [
            85.34957,
            27.668906
          ],
          [
            85.349366,
            27.668516
          ],
          [
            85.349302,
            27.668454
          ],
          [
            85.349227,
            27.668145
          ],
          [
            85.349135,
            27.667765
          ],
          [
            85.349055,
            27.66749
          ],
          [
            85.349286,
            27.667414
          ],
          [
            85.349876,
            27.667138
          ],
          [
            85.349967,
            27.667081
          ],
          [
            85.350069,
            27.666953
          ],
          [
            85.350246,
            27.666825
          ],
          [
            85.350155,
            27.66672
          ],
          [
            85.349908,
            27.666288
          ],
          [
            85.349978,
            27.666202
          ],
          [
            85.34987,
            27.666031
          ],
          [
            85.349811,
            27.665794
          ],
          [
            85.349699,
            27.665547
          ],
          [
            85.349666,
            27.665409
          ],
          [
            85.349591,
            27.6652
          ],
          [
            85.349516,
            27.665043
          ],
          [
            85.349849,
            27.664891
          ],
          [
            85.349972,
            27.664877
          ],
          [
            85.350171,
            27.664886
          ],
          [
            85.350514,
            27.664943
          ],
          [
            85.350841,
            27.665038
          ],
          [
            85.351056,
            27.665052
          ],
          [
            85.351297,
            27.664924
          ],
          [
            85.351517,
            27.66481
          ],
          [
            85.351721,
            27.664786
          ],
          [
            85.351887,
            27.664739
          ],
          [
            85.352043,
            27.664653
          ],
          [
            85.352054,
            27.664554
          ],
          [
            85.352102,
            27.664444
          ],
          [
            85.352145,
            27.664226
          ],
          [
            85.352139,
            27.664145
          ]
        ]
      }
    },
    {
      "type": "Feature",
      "id": "ktp-bridge-01",
      "properties": {
        "id": "ktp-bridge-01",
        "edge_type": "bridge",
        "from_node_id": "ktp-node-junction-nw",
        "to_node_id": "ktp-node-junction-sw",
        "baseline_travel_minutes": 2,
        "bidirectional": true,
        "penalty_depth_m": 0.1,
        "closure_depth_m": 0.22,
        "penalty_multiplier": 2,
        "critical": true
      },
      "geometry": {
        "type": "LineString",
        "coordinates": [
          [
            85.317319,
            27.705363
          ],
          [
            85.317389,
            27.705501
          ],
          [
            85.317019,
            27.705629
          ],
          [
            85.317169,
            27.705952
          ],
          [
            85.316219,
            27.706147
          ],
          [
            85.316123,
            27.706237
          ],
          [
            85.315919,
            27.706342
          ],
          [
            85.315683,
            27.706437
          ],
          [
            85.315264,
            27.706579
          ],
          [
            85.314599,
            27.706907
          ],
          [
            85.314369,
            27.707011
          ],
          [
            85.314224,
            27.707059
          ],
          [
            85.314068,
            27.705719
          ],
          [
            85.313929,
            27.70495
          ],
          [
            85.313838,
            27.704546
          ],
          [
            85.313784,
            27.704461
          ],
          [
            85.313714,
            27.703995
          ],
          [
            85.313693,
            27.703696
          ],
          [
            85.313677,
            27.702879
          ],
          [
            85.313553,
            27.701112
          ],
          [
            85.313505,
            27.700542
          ],
          [
            85.31343,
            27.69993
          ],
          [
            85.313392,
            27.699417
          ],
          [
            85.313333,
            27.698519
          ],
          [
            85.313317,
            27.698111
          ],
          [
            85.313457,
            27.697745
          ],
          [
            85.31365,
            27.69727
          ],
          [
            85.313687,
            27.697146
          ],
          [
            85.313913,
            27.695541
          ],
          [
            85.314074,
            27.694449
          ],
          [
            85.314068,
            27.694164
          ],
          [
            85.314004,
            27.693902
          ],
          [
            85.313966,
            27.69386
          ],
          [
            85.313956,
            27.69375
          ],
          [
            85.313977,
            27.693717
          ],
          [
            85.314084,
            27.693651
          ],
          [
            85.314283,
            27.693518
          ],
          [
            85.315002,
            27.692834
          ],
          [
            85.315994,
            27.691803
          ],
          [
            85.316997,
            27.690796
          ],
          [
            85.317121,
            27.690729
          ],
          [
            85.317265,
            27.690687
          ],
          [
            85.317662,
            27.690639
          ],
          [
            85.317636,
            27.690335
          ],
          [
            85.317614,
            27.690273
          ],
          [
            85.317577,
            27.690197
          ],
          [
            85.3174,
            27.689974
          ],
          [
            85.316386,
            27.688815
          ],
          [
            85.316273,
            27.688701
          ],
          [
            85.316193,
            27.688582
          ],
          [
            85.316166,
            27.688459
          ],
          [
            85.316155,
            27.688288
          ],
          [
            85.316171,
            27.688074
          ],
          [
            85.316225,
            27.687984
          ],
          [
            85.316434,
            27.687794
          ],
          [
            85.316584,
            27.687699
          ],
          [
            85.316659,
            27.687632
          ],
          [
            85.317239,
            27.686777
          ],
          [
            85.318118,
            27.685471
          ],
          [
            85.31821,
            27.685537
          ],
          [
            85.318435,
            27.685799
          ],
          [
            85.318515,
            27.685794
          ],
          [
            85.318531,
            27.685604
          ],
          [
            85.318585,
            27.685495
          ],
          [
            85.318585,
            27.685461
          ],
          [
            85.318252,
            27.685476
          ],
          [
            85.318124,
            27.685461
          ],
          [
            85.318376,
            27.685096
          ],
          [
            85.318499,
            27.684891
          ],
          [
            85.31859,
            27.684682
          ],
          [
            85.318617,
            27.684587
          ],
          [
            85.31873,
            27.683557
          ],
          [
            85.318784,
            27.683471
          ],
          [
            85.318784,
            27.683376
          ],
          [
            85.318687,
            27.683091
          ],
          [
            85.318601,
            27.682939
          ],
          [
            85.318167,
            27.682402
          ],
          [
            85.318043,
            27.682169
          ],
          [
            85.317711,
            27.6814
          ],
          [
            85.317217,
            27.680136
          ],
          [
            85.316391,
            27.678113
          ],
          [
            85.316327,
            27.677866
          ],
          [
            85.316316,
            27.677657
          ],
          [
            85.316332,
            27.677357
          ],
          [
            85.316305,
            27.677139
          ],
          [
            85.316203,
            27.676877
          ],
          [
            85.31615,
            27.676782
          ],
          [
            85.315989,
            27.676417
          ],
          [
            85.315704,
            27.675685
          ],
          [
            85.315838,
            27.675637
          ],
          [
            85.31608,
            27.675604
          ],
          [
            85.316187,
            27.675576
          ],
          [
            85.316375,
            27.675495
          ],
          [
            85.317008,
            27.675329
          ],
          [
            85.317153,
            27.675219
          ]
        ]
      }
    },
    {
      "type": "Feature",
      "id": "ktp-bridge-02",
      "properties": {
        "id": "ktp-bridge-02",
        "edge_type": "bridge",
        "from_node_id": "ktp-node-junction-ne",
        "to_node_id": "ktp-node-junction-se",
        "baseline_travel_minutes": 2,
        "bidirectional": true,
        "penalty_depth_m": 0.1,
        "closure_depth_m": 0.22,
        "penalty_multiplier": 2,
        "critical": true
      },
      "geometry": {
        "type": "LineString",
        "coordinates": [
          [
            85.34192,
            27.704808
          ],
          [
            85.341813,
            27.704817
          ],
          [
            85.341507,
            27.704931
          ],
          [
            85.34125,
            27.705002
          ],
          [
            85.340499,
            27.705363
          ],
          [
            85.3403,
            27.705425
          ],
          [
            85.340306,
            27.70551
          ],
          [
            85.339887,
            27.705715
          ],
          [
            85.339893,
            27.705791
          ],
          [
            85.339882,
            27.705805
          ],
          [
            85.339753,
            27.705886
          ],
          [
            85.339673,
            27.7059
          ],
          [
            85.33956,
            27.705952
          ],
          [
            85.339404,
            27.706052
          ],
          [
            85.339211,
            27.706095
          ],
          [
            85.339131,
            27.706133
          ],
          [
            85.339018,
            27.706118
          ],
          [
            85.338948,
            27.706066
          ],
          [
            85.338863,
            27.706061
          ],
          [
            85.338739,
            27.70609
          ],
          [
            85.33868,
            27.706175
          ],
          [
            85.338567,
            27.706171
          ],
          [
            85.338331,
            27.706109
          ],
          [
            85.33831,
            27.706251
          ],
          [
            85.33831,
            27.706536
          ],
          [
            85.338289,
            27.706636
          ],
          [
            85.338144,
            27.706964
          ],
          [
            85.338122,
            27.707073
          ],
          [
            85.338197,
            27.707325
          ],
          [
            85.338213,
            27.707505
          ],
          [
            85.338106,
            27.707766
          ],
          [
            85.338053,
            27.707847
          ],
          [
            85.33802,
            27.707937
          ],
          [
            85.33802,
            27.708023
          ],
          [
            85.337371,
            27.708051
          ],
          [
            85.337248,
            27.707985
          ],
          [
            85.337012,
            27.707885
          ],
          [
            85.336915,
            27.707795
          ],
          [
            85.33677,
            27.707149
          ],
          [
            85.336599,
            27.705938
          ],
          [
            85.336529,
            27.705748
          ],
          [
            85.336459,
            27.70561
          ],
          [
            85.336416,
            27.705472
          ],
          [
            85.336223,
            27.703668
          ],
          [
            85.336196,
            27.703283
          ],
          [
            85.336277,
            27.702912
          ],
          [
            85.336309,
            27.702841
          ],
          [
            85.336282,
            27.702761
          ],
          [
            85.337527,
            27.702433
          ],
          [
            85.339147,
            27.701877
          ],
          [
            85.340059,
            27.701521
          ],
          [
            85.339801,
            27.700979
          ],
          [
            85.339635,
            27.700595
          ],
          [
            85.339512,
            27.700519
          ],
          [
            85.339233,
            27.700414
          ],
          [
            85.339099,
            27.700348
          ],
          [
            85.338943,
            27.700224
          ],
          [
            85.338669,
            27.699963
          ],
          [
            85.338546,
            27.699749
          ],
          [
            85.33838,
            27.699355
          ],
          [
            85.338042,
            27.698163
          ],
          [
            85.337961,
            27.697811
          ],
          [
            85.337736,
            27.69698
          ],
          [
            85.337554,
            27.696149
          ],
          [
            85.337586,
            27.69556
          ],
          [
            85.337543,
            27.695484
          ],
          [
            85.33743,
            27.695375
          ],
          [
            85.337301,
            27.695057
          ],
          [
            85.337167,
            27.69433
          ],
          [
            85.337124,
            27.694225
          ],
          [
            85.337082,
            27.69404
          ],
          [
            85.337028,
            27.693703
          ],
          [
            85.336974,
            27.693598
          ],
          [
            85.336829,
            27.693385
          ],
          [
            85.336245,
            27.692572
          ],
          [
            85.336218,
            27.692506
          ],
          [
            85.336202,
            27.692435
          ],
          [
            85.336186,
            27.692026
          ],
          [
            85.336196,
            27.691456
          ],
          [
            85.336105,
            27.691152
          ],
          [
            85.336046,
            27.690886
          ],
          [
            85.335955,
            27.690435
          ],
          [
            85.335901,
            27.69034
          ],
          [
            85.335574,
            27.688468
          ],
          [
            85.335601,
            27.688373
          ],
          [
            85.33558,
            27.688283
          ],
          [
            85.335558,
            27.688207
          ],
          [
            85.335338,
            27.687599
          ],
          [
            85.33529,
            27.687333
          ],
          [
            85.335242,
            27.686815
          ],
          [
            85.335183,
            27.686478
          ],
          [
            85.335124,
            27.685737
          ],
          [
            85.335091,
            27.68549
          ],
          [
            85.335048,
            27.685404
          ],
          [
            85.334533,
            27.684825
          ],
          [
            85.334415,
            27.684616
          ],
          [
            85.334281,
            27.68453
          ],
          [
            85.334195,
            27.684554
          ],
          [
            85.333986,
            27.684673
          ],
          [
            85.333815,
            27.68463
          ],
          [
            85.333616,
            27.684374
          ],
          [
            85.333343,
            27.68387
          ],
          [
            85.33331,
            27.683561
          ],
          [
            85.333321,
            27.683481
          ],
          [
            85.333782,
            27.683409
          ],
          [
            85.334072,
            27.683338
          ],
          [
            85.334287,
            27.683324
          ],
          [
            85.334523,
            27.683248
          ],
          [
            85.334936,
            27.682996
          ],
          [
            85.335054,
            27.682958
          ],
          [
            85.335156,
            27.682958
          ],
          [
            85.33492,
            27.682697
          ],
          [
            85.334791,
            27.682611
          ],
          [
            85.334678,
            27.682507
          ],
          [
            85.33441,
            27.682217
          ],
          [
            85.334507,
            27.682079
          ],
          [
            85.334694,
            27.68187
          ],
          [
            85.334866,
            27.681747
          ],
          [
            85.334668,
            27.68158
          ],
          [
            85.334297,
            27.68131
          ],
          [
            85.334051,
            27.681153
          ],
          [
            85.334238,
            27.680854
          ],
          [
            85.334356,
            27.68074
          ],
          [
            85.334764,
            27.680151
          ],
          [
            85.335048,
            27.679652
          ],
          [
            85.335118,
            27.679566
          ],
          [
            85.335199,
            27.679424
          ],
          [
            85.335231,
            27.679362
          ],
          [
            85.335311,
            27.679086
          ],
          [
            85.335343,
            27.67901
          ],
          [
            85.335408,
            27.678953
          ],
          [
            85.335504,
            27.678721
          ],
          [
            85.335585,
            27.678455
          ],
          [
            85.335681,
            27.677908
          ],
          [
            85.335681,
            27.677794
          ],
          [
            85.336025,
            27.677438
          ],
          [
            85.336475,
            27.677205
          ],
          [
            85.337285,
            27.67673
          ],
          [
            85.338541,
            27.675861
          ],
          [
            85.339029,
            27.675637
          ],
          [
            85.339115,
            27.675595
          ],
          [
            85.339217,
            27.675599
          ],
          [
            85.339324,
            27.675542
          ],
          [
            85.339453,
            27.675519
          ],
          [
            85.339667,
            27.675419
          ],
          [
            85.339866,
            27.67539
          ],
          [
            85.340005,
            27.675637
          ],
          [
            85.340359,
            27.675661
          ],
          [
            85.340724,
            27.675675
          ],
          [
            85.340799,
            27.675671
          ],
          [
            85.340863,
            27.675637
          ],
          [
            85.340955,
            27.675528
          ],
          [
            85.341089,
            27.675485
          ],
          [
            85.341309,
            27.675395
          ],
          [
            85.341389,
            27.675438
          ],
          [
            85.341582,
            27.675338
          ],
          [
            85.341588,
            27.675305
          ],
          [
            85.341641,
            27.675267
          ],
          [
            85.341657,
            27.675219
          ],
          [
            85.341738,
            27.675196
          ],
          [
            85.341824,
            27.675134
          ],
          [
            85.34214,
            27.675139
          ]
        ]
      }
    }
  ]
}
